[{"OBJECT_NAME":"ISS OBJECT XT","OBJECT_ID":"1998-067XT","EPOCH":"2026-04-11T19:29:00.302784","MEAN_MOTION":15.84614948,"ECCENTRICITY":0.0009294,"INCLINATION":51.6203,"RA_OF_ASC_NODE":255.0176,"ARG_OF_PERICENTER":295.1718,"MEAN_ANOMALY":64.8321,"EPHEMERIS_TYPE":0,"CLASSIFICATION_TYPE":"U","NORAD_CAT_ID":66907,"ELEMENT_SET_NO":999,"REV_AT_EPOCH":2040,"BSTAR":0.0011628,"MEAN_MOTION_DOT":0.00283171,"MEAN_MOTION_DDOT":0},{"OBJECT_NAME":"ISS OBJECT XU","OBJECT_ID":"1998-067XU","EPOCH":"2026-04-11T10:14:13.013664","MEAN_MOTION":15.84849063,"ECCENTRICITY":0.0009084,"INCLINATION":51.6201,"RA_OF_ASC_NODE":256.9408,"ARG_OF_PERICENTER":291.2251,"MEAN_ANOMALY":68.7781,"EPHEMERIS_TYPE":0,"CLASSIFICATION_TYPE":"U","NORAD_CAT_ID":66908,"ELEMENT_SET_NO":999,"REV_AT_EPOCH":2034,"BSTAR":0.0012018,"MEAN_MOTION_DOT":0.00296385,"MEAN_MOTION_DDOT":0},{"OBJECT_NAME":"SILVERSAT","OBJECT_ID":"1998-067XV","EPOCH":"2026-04-11T10:36:27.150624","MEAN_MOTION":15.95566355,"ECCENTRICITY":0.0011918,"INCLINATION":51.6155,"RA_OF_ASC_NODE":254.7583,"ARG_OF_PERICENTER":300.1845,"MEAN_ANOMALY":59.7981,"EPHEMERIS_TYPE":0,"CLASSIFICATION_TYPE":"U","NORAD_CAT_ID":66909,"ELEMENT_SET_NO":999,"REV_AT_EPOCH":2037,"BSTAR":0.0014302,"MEAN_MOTION_DOT":0.00588813,"MEAN_MOTION_DDOT":0.00015493},{"OBJECT_NAME":"ISS OBJECT XW","OBJECT_ID":"1998-067XW","EPOCH":"2026-04-11T17:03:55.342944","MEAN_MOTION":15.81724614,"ECCENTRICITY":0.000892,"INCLINATION":51.6192,"RA_OF_ASC_NODE":255.8381,"ARG_OF_PERICENTER":287.8602,"MEAN_ANOMALY":72.1427,"EPHEMERIS_TYPE":0,"CLASSIFICATION_TYPE":"U","NORAD_CAT_ID":66910,"ELEMENT_SET_NO":999,"REV_AT_EPOCH":2038,"BSTAR":0.0012146,"MEAN_MOTION_DOT":0.00257233,"MEAN_MOTION_DDOT":0},{"OBJECT_NAME":"ISS OBJECT XX","OBJECT_ID":"1998-067XX","EPOCH":"2026-04-11T10:59:50.563104","MEAN_MOTION":16.30633237,"ECCENTRICITY":0.0012204,"INCLINATION":51.599,"RA_OF_ASC_NODE":251.7761,"ARG_OF_PERICENTER":297.7475,"MEAN_ANOMALY":62.231,"EPHEMERIS_TYPE":0,"CLASSIFICATION_TYPE":"U","NORAD_CAT_ID":66911,"ELEMENT_SET_NO":999,"REV_AT_EPOCH":2040,"BSTAR":0.0013558,"MEAN_MOTION_DOT":0.06931681,"MEAN_MOTION_DDOT":1.2208e-5},{"OBJECT_NAME":"ISS OBJECT XY","OBJECT_ID":"1998-067XY","EPOCH":"2026-04-11T04:00:08.494272","MEAN_MOTION":15.71104492,"ECCENTRICITY":0.00058345,"INCLINATION":51.6244,"RA_OF_ASC_NODE":262.0063,"ARG_OF_PERICENTER":283.1091,"MEAN_ANOMALY":76.9256,"EPHEMERIS_TYPE":0,"CLASSIFICATION_TYPE":"U","NORAD_CAT_ID":66912,"ELEMENT_SET_NO":999,"REV_AT_EPOCH":2024,"BSTAR":0.00080030653,"MEAN_MOTION_DOT":0.00103702,"MEAN_MOTION_DDOT":0},{"OBJECT_NAME":"KNACKSAT-2","OBJECT_ID":"1998-067XZ","EPOCH":"2026-04-11T20:41:09.760128","MEAN_MOTION":15.54718073,"ECCENTRICITY":0.0011105,"INCLINATION":51.6299,"RA_OF_ASC_NODE":266.6723,"ARG_OF_PERICENTER":310.2238,"MEAN_ANOMALY":49.7781,"EPHEMERIS_TYPE":0,"CLASSIFICATION_TYPE":"U","NORAD_CAT_ID":67683,"ELEMENT_SET_NO":999,"REV_AT_EPOCH":994,"BSTAR":0.00049118,"MEAN_MOTION_DOT":0.00032956,"MEAN_MOTION_DDOT":0},{"OBJECT_NAME":"CORAL","OBJECT_ID":"1998-067YA","EPOCH":"2026-04-11T17:59:03.285312","MEAN_MOTION":15.60463232,"ECCENTRICITY":0.0014573,"INCLINATION":51.6272,"RA_OF_ASC_NODE":265.9186,"ARG_OF_PERICENTER":301.4424,"MEAN_ANOMALY":58.5144,"EPHEMERIS_TYPE":0,"CLASSIFICATION_TYPE":"U","NORAD_CAT_ID":67684,"ELEMENT_SET_NO":999,"REV_AT_EPOCH":994,"BSTAR":0.0010426,"MEAN_MOTION_DOT":0.00088342,"MEAN_MOTION_DDOT":0},{"OBJECT_NAME":"GXIBA-1","OBJECT_ID":"1998-067YB","EPOCH":"2026-04-11T20:18:35.441856","MEAN_MOTION":15.55423821,"ECCENTRICITY":0.0013091,"INCLINATION":51.6298,"RA_OF_ASC_NODE":266.568,"ARG_OF_PERICENTER":307.251,"MEAN_ANOMALY":52.7287,"EPHEMERIS_TYPE":0,"CLASSIFICATION_TYPE":"U","NORAD_CAT_ID":67685,"ELEMENT_SET_NO":999,"REV_AT_EPOCH":994,"BSTAR":0.00051378,"MEAN_MOTION_DOT":0.00035459,"MEAN_MOTION_DDOT":0},{"OBJECT_NAME":"UITMSAT-2","OBJECT_ID":"1998-067YC","EPOCH":"2026-04-11T04:18:19.418688","MEAN_MOTION":15.56684408,"ECCENTRICITY":0.00099952,"INCLINATION":51.6296,"RA_OF_ASC_NODE":269.6181,"ARG_OF_PERICENTER":281.9734,"MEAN_ANOMALY":78.0137,"EPHEMERIS_TYPE":0,"CLASSIFICATION_TYPE":"U","NORAD_CAT_ID":67686,"ELEMENT_SET_NO":999,"REV_AT_EPOCH":984,"BSTAR":0.00063790923,"MEAN_MOTION_DOT":0.00046265,"MEAN_MOTION_DDOT":0},{"OBJECT_NAME":"HMU-SAT2","OBJECT_ID":"1998-067YD","EPOCH":"2026-04-11T20:29:16.661184","MEAN_MOTION":15.55123718,"ECCENTRICITY":0.000968,"INCLINATION":51.6319,"RA_OF_ASC_NODE":266.6219,"ARG_OF_PERICENTER":286.2702,"MEAN_ANOMALY":73.7224,"EPHEMERIS_TYPE":0,"CLASSIFICATION_TYPE":"U","NORAD_CAT_ID":67687,"ELEMENT_SET_NO":999,"REV_AT_EPOCH":986,"BSTAR":0.00053855,"MEAN_MOTION_DOT":0.00036725,"MEAN_MOTION_DDOT":0},{"OBJECT_NAME":"LEOPARD","OBJECT_ID":"1998-067YE","EPOCH":"2026-04-11T18:26:36.711744","MEAN_MOTION":15.56141373,"ECCENTRICITY":0.000961,"INCLINATION":51.6291,"RA_OF_ASC_NODE":266.8011,"ARG_OF_PERICENTER":284.4987,"MEAN_ANOMALY":75.4938,"EPHEMERIS_TYPE":0,"CLASSIFICATION_TYPE":"U","NORAD_CAT_ID":67688,"ELEMENT_SET_NO":999,"REV_AT_EPOCH":985,"BSTAR":0.00066276,"MEAN_MOTION_DOT":0.00047117,"MEAN_MOTION_DDOT":0},{"OBJECT_NAME":"CREW DRAGON 12","OBJECT_ID":"2026-031A","EPOCH":"2026-04-11T19:29:13.534080","MEAN_MOTION":15.48876576,"ECCENTRICITY":0.0006452,"INCLINATION":51.6328,"RA_OF_ASC_NODE":268.5866,"ARG_OF_PERICENTER":301.0443,"MEAN_ANOMALY":58.9912,"EPHEMERIS_TYPE":0,"CLASSIFICATION_TYPE":"U","NORAD_CAT_ID":67796,"ELEMENT_SET_NO":999,"REV_AT_EPOCH":56148,"BSTAR":0.00011297,"MEAN_MOTION_DOT":5.753e-5,"MEAN_MOTION_DDOT":0},{"OBJECT_NAME":"PROGRESS-MS 33","OBJECT_ID":"2026-058A","EPOCH":"2026-04-11T19:29:13.534080","MEAN_MOTION":15.48876576,"ECCENTRICITY":0.0006452,"INCLINATION":51.6328,"RA_OF_ASC_NODE":268.5866,"ARG_OF_PERICENTER":301.0443,"MEAN_ANOMALY":58.9912,"EPHEMERIS_TYPE":0,"CLASSIFICATION_TYPE":"U","NORAD_CAT_ID":68319,"ELEMENT_SET_NO":999,"REV_AT_EPOCH":299,"BSTAR":0.00011297,"MEAN_MOTION_DOT":5.753e-5,"MEAN_MOTION_DDOT":0}]
